OBJECT_NAME,OBJECT_ID,EPOCH,MEAN_MOTION,ECCENTRICITY,INCLINATION,RA_OF_ASC_NODE,ARG_OF_PERICENTER,MEAN_ANOMALY,EPHEMERIS_TYPE,CLASSIFICATION_TYPE,NORAD_CAT_ID,ELEMENT_SET_NO,REV_AT_EPOCH,BSTAR,MEAN_MOTION_DOT,MEAN_MOTION_DDOT
HAWK-6B,2023-011A,2026-06-25T18:33:39.198240,15.23004156,.0001315,40.4996,301.9900,88.2706,271.8254,0,U,55324,999,18915,.21184E-3,.4895E-4,0
HAWK-6C,2023-011C,2026-06-25T18:32:44.259936,15.22997317,.0002026,40.4981,298.8315,66.4382,293.6640,0,U,55326,999,18916,.19891E-3,.4583E-4,0
HAWK-6A,2023-011D,2026-06-25T18:32:47.669280,15.23002017,.000166,40.4994,300.4567,59.6489,300.4484,0,U,55327,999,18916,.21167E-3,.489E-4,0
HAWK-7A,2023-054P,2026-06-26T03:37:40.471968,15.27447987,.0003599,97.2698,64.2606,36.8203,323.3283,0,U,56191,999,17839,.23965E-3,.6366E-4,0
HAWK-7B,2023-054R,2026-06-26T03:37:34.182048,15.27446326,.0003209,97.2725,62.5278,52.4895,307.6636,0,U,56193,999,17839,.24109E-3,.6405E-4,0
HAWK-7C,2023-054Y,2026-06-26T03:37:24.066336,15.27446687,.000303,97.2703,63.2935,42.6263,317.5211,0,U,56200,999,17839,.23832E-3,.633E-4,0
