HAWK-6B                 
1 55324U 23011A   26176.77337035  .00004895  00000+0  21184-3 0  9997
2 55324  40.4996 301.9900 0001315  88.2706 271.8254 15.23004156189156
HAWK-6C                 
1 55326U 23011C   26176.77273449  .00004583  00000+0  19891-3 0  9993
2 55326  40.4981 298.8315 0002026  66.4382 293.6640 15.22997317189165
HAWK-6A                 
1 55327U 23011D   26176.77277395  .00004890  00000+0  21167-3 0  9998
2 55327  40.4994 300.4567 0001660  59.6489 300.4484 15.23002017189162
HAWK-7A                 
1 56191U 23054P   26177.15116287  .00006366  00000+0  23965-3 0  9998
2 56191  97.2698  64.2606 0003599  36.8203 323.3283 15.27447987178393
HAWK-7B                 
1 56193U 23054R   26177.15109007  .00006405  00000+0  24109-3 0  9997
2 56193  97.2725  62.5278 0003209  52.4895 307.6636 15.27446326178394
HAWK-7C                 
1 56200U 23054Y   26177.15097299  .00006330  00000+0  23832-3 0  9994
2 56200  97.2703  63.2935 0003030  42.6263 317.5211 15.27446687178398
